[{"OBJECT_NAME":"PROTOMETHEE","OBJECT_ID":"2023-174BT","EPOCH":"2026-03-09T23:28:08.029344","MEAN_MOTION":15.30202663,"ECCENTRICITY":0.00088339,"INCLINATION":97.3826,"RA_OF_ASC_NODE":147.9552,"ARG_OF_PERICENTER":148.5993,"MEAN_ANOMALY":211.5776,"EPHEMERIS_TYPE":0,"CLASSIFICATION_TYPE":"U","NORAD_CAT_ID":58321,"ELEMENT_SET_NO":999,"REV_AT_EPOCH":12979,"BSTAR":0.00015715731,"MEAN_MOTION_DOT":4.52e-5,"MEAN_MOTION_DDOT":0},{"OBJECT_NAME":"STARLINK-31318","OBJECT_ID":"2024-020K","EPOCH":"2026-03-09T20:49:09.692256","MEAN_MOTION":15.3019392,"ECCENTRICITY":6.3e-5,"INCLINATION":53.1595,"RA_OF_ASC_NODE":321.9176,"ARG_OF_PERICENTER":104.3902,"MEAN_ANOMALY":255.7169,"EPHEMERIS_TYPE":0,"CLASSIFICATION_TYPE":"U","NORAD_CAT_ID":58885,"ELEMENT_SET_NO":999,"REV_AT_EPOCH":11809,"BSTAR":-2.6829e-5,"MEAN_MOTION_DOT":-1.153e-5,"MEAN_MOTION_DDOT":0}]
